H2SAT (HEINRICH HERTZ)  
1 57213U 23093A   26155.13748118  .00000014  00000+0  00000+0 0  9990
2 57213   0.0448 123.4904 0000974 332.0680 207.2004  1.00272490 10787
SYRACUSE 4B             
1 57214U 23093B   26156.13417177 -.00000041  00000+0  00000+0 0  9991
2 57214   0.0176  12.1806 0000337 130.9880 152.2774  1.00273536  6848
JUPITER 3 (ECHOSTAR 24) 
1 57479U 23108A   26154.56448929  .00000000  00000+0  00000+0 0  9999
2 57479   0.0193 329.9698 0001234 102.0529 287.9908  1.00270212 10506
GALAXY 37 (G-37)        
1 57493U 23112A   26155.96773244  .00000060  00000+0  00000+0 0  9992
2 57493   0.0166 319.4800 0002233 117.5390  37.7833  1.00273223 10422
LUDI TANCE-4 01A        
1 57624U 23120A   26156.11969648 -.00000165  00000+0  00000+0 0  9997
2 57624  15.1092 194.2685 0000787  80.4519 111.6454  1.00272058 10422
TJS-10                  
1 58204U 23169A   26154.72794654 -.00000238  00000+0  00000+0 0  9994
2 58204   2.5097  80.6492 0003775  96.3835  69.6584  1.00269817  9404
ZHONGXING-6E            
1 58253U 23172A   26156.08696287  .00000000  00000+0  00000+0 0  9992
2 58253   0.0142 342.5127 0002622  97.4139 320.4485  1.00268674  9538
YAOGAN-41               
1 58582U 23197A   26156.01723780 -.00000351  00000+0  00000+0 0  9996
2 58582   3.1514 312.9442 0014141 191.9718 237.8573  1.00277867  9200
OVZON-3                 
1 58698U 24003A   26156.07595615  .00000064  00000+0  00000+0 0  9991
2 58698   0.0073 262.6573 0000271 157.5583 280.3456  1.00271173  7325
INSAT-3DS               
1 58990U 24033A   26156.08037617 -.00000143  00000+0  00000+0 0  9992
2 58990   0.0096 304.2430 0001561 124.4339 295.8387  1.00270662 46942
MERAH PUTIH 2           
1 58995U 24035A   26156.01524446 -.00000346  00000+0  00000+0 0  9998
2 58995   0.0130 280.1495 0001547 142.3029 309.4441  1.00270858  8463
TJS-11                  
1 59020U 24037A   26156.01541779 -.00000341  00000+0  00000+0 0  9993
2 59020   4.2140 326.9069 0004094 135.7501 270.4324  1.00070148  8464
HULIANWAN GAOGUI-01 (H*)
1 59069U 24040A   26155.00141428  .00000168  00000+0  00000+0 0  9991
2 59069   0.0663 329.3867 0003260  74.4115 242.7853  1.00272355  7190
EUTELSAT 36D            
1 59346U 24059A   26156.16641904  .00000168  00000+0  00000+0 0  9991
2 59346   0.0156   2.6198 0000450 130.7208 216.0503  1.00271566  8022
PAKSAT-MM1              
1 59915U 24104A   26154.64578588  .00000165  00000+0  00000+0 0  9999
2 59915   0.0154  42.0049 0002046  27.2826  93.4750  1.00274914  7394
ASTRA 1P (SES-24)       
1 60086U 24115A   26155.64016187  .00000132  00000+0  00000+0 0  9999
2 60086   0.0634  15.3785 0000790 350.1109 137.2606  1.00269876  7077
GOES 19                 
1 60133U 24119A   26156.14583652 -.00000236  00000+0  00000+0 0  9994
2 60133   0.0452 133.3071 0000670   1.0831  96.5071  1.00271340  6844
ZHONGXING-3A            
1 60179U 24122A   26156.18566959 -.00000301  00000+0  00000+0 0  9996
2 60179   0.0442 109.9480 0001314 342.2597 329.8254  1.00273645  7184
TURKSAT 6A              
1 60233U 24127A   26156.11711499  .00000159  00000+0  00000+0 0  9996
2 60233   0.0467 166.0244 0001698 314.5210 217.1723  1.00271333  6892
HULIANWAN GAOGUI-02 (H*)
1 60327U 24135A   26155.95187238 -.00000160  00000+0  00000+0 0  9991
2 60327   0.0421 353.0432 0007998  15.2406  20.9788  1.00271041  7375
ZHONGXING-4A            
1 60606U 24151A   26156.01628447 -.00000350  00000+0  00000+0 0  9990
2 60606   1.3463 270.9824 0000597 186.3177 280.2523  1.00272366  6637
HULIANWAN GAOGUI-03 (H*)
1 61503U 24181A   26155.40718279 -.00000229  00000+0  00000+0 0  9990
2 61503   0.0444 359.6070 0001439 102.0804 220.6203  1.00271246  6690
DSN-3 (KIRAMEKI-3)      
1 61733U 24198A   26156.16389859 -.00000238  00000+0  00000+0 0  9995
2 61733   0.0146  47.9261 0000751  83.2255 325.5291  1.00271535  5804
KOREASAT 6A             
1 61910U 24206A   26156.18169980 -.00000349  00000+0  00000+0 0  9998
2 61910   0.0163  75.7313 0001026   0.9647 358.3268  1.00268957  5716
OPTUS-X (ADS-01)        
1 62006U 24212A   26155.94489073 -.00000131  00000+0  00000+0 0  9992
2 62006   0.0157 292.8681 0001826 181.5402 275.5517  1.00273923  5636
GSAT-N2 (GSAT-20)       
1 62028U 24214A   26156.14890520 -.00000009  00000+0  00000+0 0  9998
2 62028   0.0217 225.8829 0002167 213.0252 296.3394  1.00275109  5777
SXM-9                   
1 62259U 24234A   26155.40562278 -.00000193  00000+0  00000+0 0  9994
2 62259   0.0136 332.2696 0004518 343.3921 358.0616  1.00270417  5444
TJS-12                  
1 62374U 24246A   26156.16450525 -.00000218  00000+0  00000+0 0  9998
2 62374   0.6976 297.9864 0002366  89.4721  71.9114  1.00273748  5443
NUVIEW ALPHA            
1 62455U 24252B   26156.16433858 -.00000203  00000+0  00000+0 0  9999
2 62455   0.0594  36.0827 0001056  13.3245 180.2763  1.00271798  3700
AGILA                   
1 62456U 24252C   26154.88222921 -.00000170  00000+0  00000+0 0  9997
2 62456   0.0477 136.5808 0001135 314.9874 270.5252  1.00270514  5020
NUVIEW BRAVO            
1 62457U 24252D   26154.47916912 -.00000203  00000+0  00000+0 0  9990
2 62457   0.0753 137.8768 0001996 335.8772 227.5746  1.00270889  3653
