OBJECT_NAME,OBJECT_ID,EPOCH,MEAN_MOTION,ECCENTRICITY,INCLINATION,RA_OF_ASC_NODE,ARG_OF_PERICENTER,MEAN_ANOMALY,EPHEMERIS_TYPE,CLASSIFICATION_TYPE,NORAD_CAT_ID,ELEMENT_SET_NO,REV_AT_EPOCH,BSTAR,MEAN_MOTION_DOT,MEAN_MOTION_DDOT
H2SAT (HEINRICH HERTZ),2023-093A,2026-06-04T03:17:58.373952,1.00272490,.00009749,0.0448,123.4904,332.0680,207.2004,0,U,57213,999,1078,0,.14E-6,0
SYRACUSE 4B,2023-093B,2026-06-05T03:13:12.440928,1.00273536,.0000337,0.0176,12.1806,130.9880,152.2774,0,U,57214,999,684,0,-.41E-6,0
JUPITER 3 (ECHOSTAR 24),2023-108A,2026-06-03T13:32:51.874656,1.00270212,.00012346,0.0193,329.9698,102.0529,287.9908,0,U,57479,999,1050,0,0,0
GALAXY 37 (G-37),2023-112A,2026-06-04T23:13:32.082816,1.00273223,.0002233,0.0166,319.4800,117.5390,37.7833,0,U,57493,999,1042,0,.6E-6,0
LUDI TANCE-4 01A,2023-120A,2026-06-05T02:52:21.775872,1.00272058,.0000787,15.1092,194.2685,80.4519,111.6454,0,U,57624,999,1042,0,-.165E-5,0
TJS-10,2023-169A,2026-06-03T17:28:14.581056,1.00269817,.0003775,2.5097,80.6492,96.3835,69.6584,0,U,58204,999,940,0,-.238E-5,0
ZHONGXING-6E,2023-172A,2026-06-05T02:05:13.591968,1.00268674,.0002622,0.0142,342.5127,97.4139,320.4485,0,U,58253,999,953,0,0,0
YAOGAN-41,2023-197A,2026-06-05T00:24:49.345920,1.00277867,.0014141,3.1514,312.9442,191.9718,237.8573,0,U,58582,999,920,0,-.351E-5,0
OVZON-3,2024-003A,2026-06-05T01:49:22.611360,1.00271173,.0000271,0.0073,262.6573,157.5583,280.3456,0,U,58698,999,732,0,.64E-6,0
INSAT-3DS,2024-033A,2026-06-05T01:55:44.501088,1.00270662,.0001561,0.0096,304.2430,124.4339,295.8387,0,U,58990,999,4694,0,-.143E-5,0
MERAH PUTIH 2,2024-035A,2026-06-05T00:21:57.121344,1.00270858,.0001547,0.0130,280.1495,142.3029,309.4441,0,U,58995,999,846,0,-.346E-5,0
TJS-11,2024-037A,2026-06-05T00:22:12.097056,1.00070148,.0004094,4.2140,326.9069,135.7501,270.4324,0,U,59020,999,846,0,-.341E-5,0
HULIANWAN GAOGUI-01 (HG-01),2024-040A,2026-06-04T00:02:02.193792,1.00272355,.00032602,0.0663,329.3867,74.4115,242.7853,0,U,59069,999,719,0,.168E-5,0
EUTELSAT 36D,2024-059A,2026-06-05T03:59:38.605056,1.00271566,.000045,0.0156,2.6198,130.7208,216.0503,0,U,59346,999,802,0,.168E-5,0
PAKSAT-MM1,2024-104A,2026-06-03T15:29:55.900032,1.00274914,.00020461,0.0154,42.0049,27.2826,93.4750,0,U,59915,999,739,0,.165E-5,0
ASTRA 1P (SES-24),2024-115A,2026-06-04T15:21:49.985568,1.00269876,.000079,0.0634,15.3785,350.1109,137.2606,0,U,60086,999,707,0,.132E-5,0
GOES 19,2024-119A,2026-06-05T03:30:00.275328,1.00271340,.000067,0.0452,133.3071,1.0831,96.5071,0,U,60133,999,684,0,-.236E-5,0
ZHONGXING-3A,2024-122A,2026-06-05T04:27:21.852576,1.00273645,.0001314,0.0442,109.9480,342.2597,329.8254,0,U,60179,999,718,0,-.301E-5,0
TURKSAT 6A,2024-127A,2026-06-05T02:48:38.735136,1.00271333,.0001698,0.0467,166.0244,314.5210,217.1723,0,U,60233,999,689,0,.159E-5,0
HULIANWAN GAOGUI-02 (HG-02),2024-135A,2026-06-04T22:50:41.773632,1.00271041,.0007998,0.0421,353.0432,15.2406,20.9788,0,U,60327,999,737,0,-.16E-5,0
ZHONGXING-4A,2024-151A,2026-06-05T00:23:26.978208,1.00272366,.0000597,1.3463,270.9824,186.3177,280.2523,0,U,60606,999,663,0,-.35E-5,0
HULIANWAN GAOGUI-03 (HG-03),2024-181A,2026-06-04T09:46:20.593056,1.00271246,.00014391,0.0444,359.6070,102.0804,220.6203,0,U,61503,999,669,0,-.229E-5,0
DSN-3 (KIRAMEKI-3),2024-198A,2026-06-05T03:56:00.838176,1.00271535,.0000751,0.0146,47.9261,83.2255,325.5291,0,U,61733,999,580,0,-.238E-5,0
KOREASAT 6A,2024-206A,2026-06-05T04:21:38.862720,1.00268957,.0001026,0.0163,75.7313,0.9647,358.3268,0,U,61910,999,571,0,-.349E-5,0
OPTUS-X (ADS-01),2024-212A,2026-06-04T22:40:38.559072,1.00273923,.0001826,0.0157,292.8681,181.5402,275.5517,0,U,62006,999,563,0,-.131E-5,0
GSAT-N2 (GSAT-20),2024-214A,2026-06-05T03:34:25.409280,1.00275109,.0002167,0.0217,225.8829,213.0252,296.3394,0,U,62028,999,577,0,-.9E-7,0
SXM-9,2024-234A,2026-06-04T09:44:05.808192,1.00270417,.00045189,0.0136,332.2696,343.3921,358.0616,0,U,62259,999,544,0,-.193E-5,0
TJS-12,2024-246A,2026-06-05T03:56:53.253600,1.00273748,.0002366,0.6976,297.9864,89.4721,71.9114,0,U,62374,999,544,0,-.218E-5,0
NUVIEW ALPHA,2024-252B,2026-06-05T03:56:38.853312,1.00271798,.0001056,0.0594,36.0827,13.3245,180.2763,0,U,62455,999,370,0,-.203E-5,0
AGILA,2024-252C,2026-06-03T21:10:24.603744,1.00270514,.0001135,0.0477,136.5808,314.9874,270.5252,0,U,62456,999,502,0,-.17E-5,0
NUVIEW BRAVO,2024-252D,2026-06-03T11:30:00.211968,1.00270889,.0001996,0.0753,137.8768,335.8772,227.5746,0,U,62457,999,365,0,-.203E-5,0
